OBJECT_NAME,OBJECT_ID,EPOCH,MEAN_MOTION,ECCENTRICITY,INCLINATION,RA_OF_ASC_NODE,ARG_OF_PERICENTER,MEAN_ANOMALY,EPHEMERIS_TYPE,CLASSIFICATION_TYPE,NORAD_CAT_ID,ELEMENT_SET_NO,REV_AT_EPOCH,BSTAR,MEAN_MOTION_DOT,MEAN_MOTION_DDOT
ONEWEB-0211,2021-045A,2026-07-08T15:05:06.831456,13.16197179,.00025531,87.8994,254.8056,109.6232,250.5174,0,U,48767,999,24726,.10344325E-3,.52E-6,0
ONEWEB-0223,2021-045B,2026-07-08T17:13:11.419392,13.15547954,.00021845,87.9001,254.9020,111.6948,248.4415,0,U,48768,999,24723,.39635805E-3,.162E-5,0
ONEWEB-0230,2021-045C,2026-07-08T14:42:35.938944,13.15547902,.00019511,87.8984,254.9352,96.1233,264.0120,0,U,48769,999,24748,-.67474794E-4,-.13E-6,0
ONEWEB-0237,2021-045D,2026-07-08T16:16:08.530464,13.15548482,.00023854,87.8993,254.9224,98.5508,261.5893,0,U,48770,999,24721,-.561139E-3,-.198E-5,0
ONEWEB-0235,2021-045E,2026-07-08T17:29:08.994912,13.15549687,.00021347,87.9001,254.9008,112.5312,247.6044,0,U,48771,999,24721,-.9784848E-5,.9E-7,0
ONEWEB-0242,2021-045F,2026-07-08T17:20:02.281632,13.15548127,.00019267,87.9000,254.8998,103.3016,256.8329,0,U,48772,999,24725,.16725515E-3,.76E-6,0
ONEWEB-0241,2021-045G,2026-07-08T15:12:14.169312,13.15550147,.00023712,87.8978,254.9328,106.0796,254.0595,0,U,48773,999,24715,.66984811E-3,.265E-5,0
ONEWEB-0243,2021-045H,2026-07-08T17:47:24.764640,13.15550270,.00017071,87.8990,254.9243,111.3863,248.7450,0,U,48774,999,24719,-.4209408E-3,-.146E-5,0
ONEWEB-0222,2021-045J,2026-07-08T17:23:26.427552,13.15546556,.00021334,87.9001,254.8966,105.6200,254.5166,0,U,48775,999,24723,.2426204E-3,.104E-5,0
ONEWEB-0244,2021-045K,2026-07-08T16:11:34.988064,13.15548049,.00020255,87.9004,254.9025,102.5702,257.5655,0,U,48776,999,24779,-.45553104E-3,-.159E-5,0
ONEWEB-0247,2021-045L,2026-07-08T16:07:01.236576,13.15548492,.00018408,87.8983,254.9333,122.0283,238.1027,0,U,48777,999,24723,-.41705581E-3,-.144E-5,0
ONEWEB-0245,2021-045M,2026-07-08T16:00:09.840384,13.15549209,.00022401,87.9002,254.9140,103.7291,256.4089,0,U,48778,999,24720,-.53633387E-3,-.189E-5,0
ONEWEB-0229,2021-045N,2026-07-08T17:42:50.785920,13.15548169,.00019096,87.9005,254.8969,103.3896,256.7447,0,U,48779,999,24724,-.84990004E-4,-.19E-6,0
ONEWEB-0228,2021-045P,2026-07-08T14:51:55.148256,13.15548850,.00020627,87.8999,254.9159,101.4044,258.7319,0,U,48780,999,24714,.15609183E-3,.72E-6,0
ONEWEB-0232,2021-045Q,2026-07-08T14:15:13.035168,13.15547681,.00021699,87.8999,254.9211,99.2107,260.9268,0,U,48781,999,24746,-.44550846E-3,-.155E-5,0
ONEWEB-0231,2021-045R,2026-07-08T17:22:18.660576,13.15547479,.000213,87.8997,254.9072,106.7056,253.4308,0,U,48782,999,24717,.16272851E-3,.74E-6,0
ONEWEB-0234,2021-045S,2026-07-08T16:27:21.061152,13.15553694,.0002899,87.8995,254.8974,95.5208,264.6253,0,U,48783,999,24730,-.3813E-2,-.1423E-4,0
ONEWEB-0238,2021-045T,2026-07-08T16:27:43.971840,13.15548449,.00024718,87.9001,254.8926,94.5479,265.5934,0,U,48784,999,24720,-.24284422E-3,-.79E-6,0
ONEWEB-0240,2021-045U,2026-07-08T15:08:49.951680,13.15548932,.00022958,87.8999,254.9136,106.8376,253.3006,0,U,48785,999,24722,.24123381E-3,.104E-5,0
ONEWEB-0246,2021-045V,2026-07-08T15:00:50.744448,13.15547638,.00019566,87.8995,254.9184,100.8597,259.2754,0,U,48786,999,24709,.21053333E-3,.92E-6,0
ONEWEB-0210,2021-045W,2026-07-08T16:13:51.613248,13.15547777,.00015884,87.9006,254.9046,121.0563,239.0724,0,U,48787,999,24714,-.60275878E-3,-.214E-5,0
ONEWEB-0214,2021-045X,2026-07-08T16:26:23.142048,13.15546779,.00017597,87.8995,254.9014,100.9323,259.2005,0,U,48788,999,24711,-.68867583E-3,-.246E-5,0
ONEWEB-0221,2021-045Y,2026-07-08T14:47:09.779424,13.15548180,.00020899,87.8996,254.9233,105.2195,254.9166,0,U,48789,999,24719,.16555688E-4,.19E-6,0
ONEWEB-0213,2021-045Z,2026-07-08T16:20:42.668160,13.15548029,.00020043,87.8992,254.9138,107.7843,252.3506,0,U,48790,999,24726,-.10006085E-3,-.25E-6,0
ONEWEB-0212,2021-045AA,2026-07-08T17:37:07.403808,13.15546628,.00020881,87.8999,254.8966,98.7166,261.4201,0,U,48791,999,24726,-.21065622E-3,-.66E-6,0
ONEWEB-0227,2021-045AB,2026-07-08T17:36:00.179424,13.15547538,.00021044,87.8998,254.8970,102.2333,257.9033,0,U,48792,999,24721,-.12452153E-3,-.34E-6,0
ONEWEB-0226,2021-045AC,2026-07-08T17:26:52.352448,13.15547542,.00019265,87.8998,254.9028,106.5399,253.5943,0,U,48793,999,24718,.83425777E-4,.44E-6,0
ONEWEB-0224,2021-045AD,2026-07-08T14:44:53.028960,13.15548125,.00029363,87.8988,254.9585,104.3697,255.7760,0,U,48794,999,24709,-.20497831E-4,.5E-7,0
ONEWEB-0233,2021-045AE,2026-07-08T14:51:31.961088,13.15550392,.00021681,87.8988,254.9646,106.2844,253.8525,0,U,48795,999,24711,.11042527E-3,.54E-6,0
ONEWEB-0190,2021-045AF,2026-07-08T16:22:59.450592,13.15548403,.00020765,87.8989,254.9158,119.5589,240.5749,0,U,48796,999,24719,-.82811767E-4,-.18E-6,0
