ONEWEB-0211             
1 48767U 21045A   26189.62855129  .00000052  00000+0  10344-3 0  9999
2 48767  87.8994 254.8056 0002553 109.6232 250.5174 13.16197179247267
ONEWEB-0223             
1 48768U 21045B   26189.71749328  .00000162  00000+0  39636-3 0  9990
2 48768  87.9001 254.9020 0002184 111.6948 248.4415 13.15547954247237
ONEWEB-0230             
1 48769U 21045C   26189.61291596 -.00000013  00000+0 -67475-4 0  9999
2 48769  87.8984 254.9352 0001951  96.1233 264.0120 13.15547902247487
ONEWEB-0237             
1 48770U 21045D   26189.67787651 -.00000198  00000+0 -56114-3 0  9990
2 48770  87.8993 254.9224 0002385  98.5508 261.5893 13.15548482247214
ONEWEB-0235             
1 48771U 21045E   26189.72857633  .00000009  00000+0 -97848-5 0  9996
2 48771  87.9001 254.9008 0002134 112.5312 247.6044 13.15549687247219
ONEWEB-0242             
1 48772U 21045F   26189.72224863  .00000076  00000+0  16726-3 0  9997
2 48772  87.9000 254.8998 0001926 103.3016 256.8329 13.15548127247253
ONEWEB-0241             
1 48773U 21045G   26189.63349733  .00000265  00000+0  66985-3 0  9994
2 48773  87.8978 254.9328 0002371 106.0796 254.0595 13.15550147247154
ONEWEB-0243             
1 48774U 21045H   26189.74125885 -.00000146  00000+0 -42094-3 0  9992
2 48774  87.8990 254.9243 0001707 111.3863 248.7450 13.15550270247192
ONEWEB-0222             
1 48775U 21045J   26189.72461143  .00000104  00000+0  24262-3 0  9990
2 48775  87.9001 254.8966 0002133 105.6200 254.5166 13.15546556247239
ONEWEB-0244             
1 48776U 21045K   26189.67471051 -.00000159  00000+0 -45553-3 0  9992
2 48776  87.9004 254.9025 0002025 102.5702 257.5655 13.15548049247799
ONEWEB-0247             
1 48777U 21045L   26189.67154209 -.00000144  00000+0 -41706-3 0  9996
2 48777  87.8983 254.9333 0001840 122.0283 238.1027 13.15548492247231
ONEWEB-0245             
1 48778U 21045M   26189.66678056 -.00000189  00000+0 -53633-3 0  9998
2 48778  87.9002 254.9140 0002240 103.7291 256.4089 13.15549209247206
ONEWEB-0229             
1 48779U 21045N   26189.73808780 -.00000019  00000+0 -84990-4 0  9999
2 48779  87.9005 254.8969 0001909 103.3896 256.7447 13.15548169247245
ONEWEB-0228             
1 48780U 21045P   26189.61938829  .00000072  00000+0  15609-3 0  9993
2 48780  87.8999 254.9159 0002062 101.4044 258.7319 13.15548850247141
ONEWEB-0232             
1 48781U 21045Q   26189.59390087 -.00000155  00000+0 -44551-3 0  9991
2 48781  87.8999 254.9211 0002169  99.2107 260.9268 13.15547681247467
ONEWEB-0231             
1 48782U 21045R   26189.72382709  .00000074  00000+0  16273-3 0  9997
2 48782  87.8997 254.9072 0002130 106.7056 253.4308 13.15547479247171
ONEWEB-0234             
1 48783U 21045S   26189.68566043 -.00001423  00000+0 -38130-2 0  9994
2 48783  87.8995 254.8974 0002899  95.5208 264.6253 13.15553694247300
ONEWEB-0238             
1 48784U 21045T   26189.68592560 -.00000079  00000+0 -24284-3 0  9990
2 48784  87.9001 254.8926 0002471  94.5479 265.5934 13.15548449247209
ONEWEB-0240             
1 48785U 21045U   26189.63113370  .00000104  00000+0  24123-3 0  9993
2 48785  87.8999 254.9136 0002295 106.8376 253.3006 13.15548932247220
ONEWEB-0246             
1 48786U 21045V   26189.62558732  .00000092  00000+0  21053-3 0  9993
2 48786  87.8995 254.9184 0001956 100.8597 259.2754 13.15547638247094
ONEWEB-0210             
1 48787U 21045W   26189.67629182 -.00000214  00000+0 -60276-3 0  9995
2 48787  87.9006 254.9046 0001588 121.0563 239.0724 13.15547777247148
ONEWEB-0214             
1 48788U 21045X   26189.68499007 -.00000246  00000+0 -68868-3 0  9998
2 48788  87.8995 254.9014 0001759 100.9323 259.2005 13.15546779247114
ONEWEB-0221             
1 48789U 21045Y   26189.61608541  .00000019  00000+0  16556-4 0  9991
2 48789  87.8996 254.9233 0002089 105.2195 254.9166 13.15548180247197
ONEWEB-0213             
1 48790U 21045Z   26189.68104940 -.00000025  00000+0 -10006-3 0  9996
2 48790  87.8992 254.9138 0002004 107.7843 252.3506 13.15548029247263
ONEWEB-0212             
1 48791U 21045AA  26189.73411347 -.00000066  00000+0 -21066-3 0  9998
2 48791  87.8999 254.8966 0002088  98.7166 261.4201 13.15546628247264
ONEWEB-0227             
1 48792U 21045AB  26189.73333541 -.00000034  00000+0 -12452-3 0  9992
2 48792  87.8998 254.8970 0002104 102.2333 257.9033 13.15547538247214
ONEWEB-0226             
1 48793U 21045AC  26189.72699482  .00000044  00000+0  83426-4 0  9990
2 48793  87.8998 254.9028 0001926 106.5399 253.5943 13.15547542247183
ONEWEB-0224             
1 48794U 21045AD  26189.61450265  .00000005  00000+0 -20498-4 0  9991
2 48794  87.8988 254.9585 0002936 104.3697 255.7760 13.15548125247099
ONEWEB-0233             
1 48795U 21045AE  26189.61911992  .00000054  00000+0  11043-3 0  9999
2 48795  87.8988 254.9646 0002168 106.2844 253.8525 13.15550392247110
ONEWEB-0190             
1 48796U 21045AF  26189.68263253 -.00000018  00000+0 -82812-4 0  9992
2 48796  87.8989 254.9158 0002076 119.5589 240.5749 13.15548403247190
